stk.v.4.3 

BEGIN Ephemeris 
 
NumberOfEphemerisPoints		146 
ScenarioEpoch	    2 Jan 2020 13:11: 6.044935584 
InterpolationMethod		Lagrange 
InterpolationOrder		5 
CentralBody				Earth 
CoordinateSystem			TEME 
CoordinateSystemEpoch	  2 Jan 2020 13:11: 6.044935584 
DistanceUnit			Kilometers 
 
EphemerisTimePosVel 
 
       0.00000000   -6892.35868487   -1933.97015911       0.04314012  0.135830773 -0.448571777  7.449068664
 END Ephemeris 
